{"type": "FeatureCollection", "features": [ {"type": "Feature", "properties": {"norad_id": 34732, "name": "COSMOS 2251 DEB", "group": "cosmos-2251-debris", "lat": 37.28722180641156, "lon": 122.738688498977, "alt_km": 752.3023752051677, "timestamp": "2025-12-03T15:48:03.461284+00:00", "meta": {"OBJECT_NAME": "COSMOS 2251 DEB", "OBJECT_ID": "1993-036ZA", "EPOCH": "2025-12-02T02:01:16.053312", "MEAN_MOTION": 14.47279623, "ECCENTRICITY": 0.00404868, "INCLINATION": 74.044, "RA_OF_ASC_NODE": 113.0964, "ARG_OF_PERICENTER": 266.0706, "MEAN_ANOMALY": 214.3828, "EPHEMERIS_TYPE": 0, "CLASSIFICATION_TYPE": "U", "NORAD_CAT_ID": 34732, "ELEMENT_SET_NO": 999, "REV_AT_EPOCH": 87989, "BSTAR": 0.0001843837, "MEAN_MOTION_DOT": 6.53e-06, "MEAN_MOTION_DDOT": 0}, "tle": {"line1": "1 34732U 93036ZA  25336.08421358  .00000653  00000+0  18438-3 0  9990", "line2": "2 34732  74.0440 113.0964 0040486 266.0706 214.3828 14.47279623879897"}}, "geometry": {"type": "Point", "coordinates": [122.738688498977, 37.28722180641156]}}, {"type": "Feature", "properties": {"norad_id": 34736, "name": "COSMOS 2251 DEB", "group": "cosmos-2251-debris", "lat": -73.91515745449539, "lon": -39.84766142881956, "alt_km": 454.7209417889244, "timestamp": "2025-12-03T15:48:03.461293+00:00", "meta": {"OBJECT_NAME": "COSMOS 2251 DEB", "OBJECT_ID": "1993-036ZE", "EPOCH": "2025-12-02T23:02:05.572608", "MEAN_MOTION": 15.38655375, "ECCENTRICITY": 0.00149828, "INCLINATION": 74.0052, "RA_OF_ASC_NODE": 57.5046, "ARG_OF_PERICENTER": 355.0244, "MEAN_ANOMALY": 5.0811, "EPHEMERIS_TYPE": 0, "CLASSIFICATION_TYPE": "U", "NORAD_CAT_ID": 34736, "ELEMENT_SET_NO": 999, "REV_AT_EPOCH": 88297, "BSTAR": 0.0083326692, "MEAN_MOTION_DOT": 0.00333583, "MEAN_MOTION_DDOT": 0}, "tle": {"line1": "1 34736U 93036ZE  25336.95978672  .00333583  00000+0  83327-2 0  9995", "line2": "2 34736  74.0052  57.5046 0014982 355.0244   5.0811 15.38655375882974"}}, "geometry": {"type": "Point", "coordinates": [-39.84766142881956, -73.91515745449539]}}, {"type": "Feature", "properties": {"norad_id": 34738, "name": "COSMOS 2251 DEB", "group": "cosmos-2251-debris", "lat": 68.75477554465775, "lon": -67.26637896501899, "alt_km": 761.4311641921304, "timestamp": "2025-12-03T15:48:03.461302+00:00", "meta": {"OBJECT_NAME": "COSMOS 2251 DEB", "OBJECT_ID": "1993-036ZG", "EPOCH": "2025-12-02T14:43:42.099744", "MEAN_MOTION": 14.46263711, "ECCENTRICITY": 0.00471125, "INCLINATION": 74.0141, "RA_OF_ASC_NODE": 162.191, "ARG_OF_PERICENTER": 310.3802, "MEAN_ANOMALY": 116.5033, "EPHEMERIS_TYPE": 0, "CLASSIFICATION_TYPE": "U", "NORAD_CAT_ID": 34738, "ELEMENT_SET_NO": 999, "REV_AT_EPOCH": 87712, "BSTAR": 0.00036862603, "MEAN_MOTION_DOT": 1.31e-05, "MEAN_MOTION_DDOT": 0}, "tle": {"line1": "1 34738U 93036ZG  25336.61368171  .00001310  00000+0  36863-3 0  9991", "line2": "2 34738  74.0141 162.1910 0047112 310.3802 116.5033 14.46263711877125"}}, "geometry": {"type": "Point", "coordinates": [-67.26637896501899, 68.75477554465775]}}, {"type": "Feature", "properties": {"norad_id": 34750, "name": "COSMOS 2251 DEB", "group": "cosmos-2251-debris", "lat": 44.95700995116818, "lon": 22.511840573247543, "alt_km": 664.6852531359264, "timestamp": "2025-12-03T15:48:03.461312+00:00", "meta": {"OBJECT_NAME": "COSMOS 2251 DEB", "OBJECT_ID": "1993-036ZU", "EPOCH": "2025-12-03T02:47:09.710304", "MEAN_MOTION": 14.61164731, "ECCENTRICITY": 0.00393105, "INCLINATION": 74.1086, "RA_OF_ASC_NODE": 220.0699, "ARG_OF_PERICENTER": 176.3918, "MEAN_ANOMALY": 345.1874, "EPHEMERIS_TYPE": 0, "CLASSIFICATION_TYPE": "U", "NORAD_CAT_ID": 34750, "ELEMENT_SET_NO": 999, "REV_AT_EPOCH": 88090, "BSTAR": 0.0013742088, "MEAN_MOTION_DOT": 6.816e-05, "MEAN_MOTION_DDOT": 0}, "tle": {"line1": "1 34750U 93036ZU  25337.11608461  .00006816  00000+0  13742-2 0  9996", "line2": "2 34750  74.1086 220.0699 0039310 176.3918 345.1874 14.61164731880907"}}, "geometry": {"type": "Point", "coordinates": [22.511840573247543, 44.95700995116818]}}, {"type": "Feature", "properties": {"norad_id": 34752, "name": "COSMOS 2251 DEB", "group": "cosmos-2251-debris", "lat": 73.17600788290069, "lon": 127.63011392009822, "alt_km": 541.5866343919906, "timestamp": "2025-12-03T15:48:03.461321+00:00", "meta": {"OBJECT_NAME": "COSMOS 2251 DEB", "OBJECT_ID": "1993-036ZW", "EPOCH": "2025-12-03T04:10:08.232096", "MEAN_MOTION": 14.99566626, "ECCENTRICITY": 0.00484292, "INCLINATION": 74.0143, "RA_OF_ASC_NODE": 20.0691, "ARG_OF_PERICENTER": 151.748, "MEAN_ANOMALY": 208.635, "EPHEMERIS_TYPE": 0, "CLASSIFICATION_TYPE": "U", "NORAD_CAT_ID": 34752, "ELEMENT_SET_NO": 999, "REV_AT_EPOCH": 89706, "BSTAR": 0.0011618267, "MEAN_MOTION_DOT": 0.00014635, "MEAN_MOTION_DDOT": 0}, "tle": {"line1": "1 34752U 93036ZW  25337.17370639  .00014635  00000+0  11618-2 0  9995", "line2": "2 34752  74.0143  20.0691 0048429 151.7480 208.6350 14.99566626897061"}}, "geometry": {"type": "Point", "coordinates": [127.63011392009822, 73.17600788290069]}}, {"type": "Feature", "properties": {"norad_id": 34754, "name": "COSMOS 2251 DEB", "group": "cosmos-2251-debris", "lat": -25.228647546546963, "lon": 72.15397859175579, "alt_km": 781.2410132298673, "timestamp": "2025-12-03T15:48:03.461330+00:00", "meta": {"OBJECT_NAME": "COSMOS 2251 DEB", "OBJECT_ID": "1993-036ZY", "EPOCH": "2025-12-02T22:45:27.892800", "MEAN_MOTION": 14.40457308, "ECCENTRICITY": 0.0029139, "INCLINATION": 74.0309, "RA_OF_ASC_NODE": 245.713, "ARG_OF_PERICENTER": 3.8672, "MEAN_ANOMALY": 121.4601, "EPHEMERIS_TYPE": 0, "CLASSIFICATION_TYPE": "U", "NORAD_CAT_ID": 34754, "ELEMENT_SET_NO": 999, "REV_AT_EPOCH": 87992, "BSTAR": 0.000300464, "MEAN_MOTION_DOT": 9.33e-06, "MEAN_MOTION_DDOT": 0}, "tle": {"line1": "1 34754U 93036ZY  25336.94823950  .00000933  00000+0  30046-3 0  9993", "line2": "2 34754  74.0309 245.7130 0029139   3.8672 121.4601 14.40457308879926"}}, "geometry": {"type": "Point", "coordinates": [72.15397859175579, -25.228647546546963]}}, {"type": "Feature", "properties": {"norad_id": 34755, "name": "COSMOS 2251 DEB", "group": "cosmos-2251-debris", "lat": 14.907647132050633, "lon": -50.97169897363462, "alt_km": 866.826132798612, "timestamp": "2025-12-03T15:48:03.461340+00:00", "meta": {"OBJECT_NAME": "COSMOS 2251 DEB", "OBJECT_ID": "1993-036ZZ", "EPOCH": "2025-11-28T15:26:25.154880", "MEAN_MOTION": 13.50483978, "ECCENTRICITY": 0.04082229, "INCLINATION": 73.9254, "RA_OF_ASC_NODE": 312.682, "ARG_OF_PERICENTER": 334.9897, "MEAN_ANOMALY": 144.2013, "EPHEMERIS_TYPE": 0, "CLASSIFICATION_TYPE": "U", "NORAD_CAT_ID": 34755, "ELEMENT_SET_NO": 999, "REV_AT_EPOCH": 82333, "BSTAR": 0.001766679, "MEAN_MOTION_DOT": 1.881e-05, "MEAN_MOTION_DDOT": 0}, "tle": {"line1": "1 34755U 93036ZZ  25332.64334670  .00001881  00000+0  17667-2 0  9999", "line2": "2 34755  73.9254 312.6820 0408222 334.9897 144.2013 13.50483978823331"}}, "geometry": {"type": "Point", "coordinates": [-50.97169897363462, 14.907647132050633]}}, {"type": "Feature", "properties": {"norad_id": 34756, "name": "COSMOS 2251 DEB", "group": "cosmos-2251-debris", "lat": 72.56789092844934, "lon": -126.70992317189331, "alt_km": 1037.368260973025, "timestamp": "2025-12-03T15:48:03.461348+00:00", "meta": {"OBJECT_NAME": "COSMOS 2251 DEB", "OBJECT_ID": "1993-036AAA", "EPOCH": "2025-12-02T16:31:05.981088", "MEAN_MOTION": 13.67210106, "ECCENTRICITY": 0.0344553, "INCLINATION": 74.0021, "RA_OF_ASC_NODE": 120.8981, "ARG_OF_PERICENTER": 358.9057, "MEAN_ANOMALY": 1.1264, "EPHEMERIS_TYPE": 0, "CLASSIFICATION_TYPE": "U", "NORAD_CAT_ID": 34756, "ELEMENT_SET_NO": 999, "REV_AT_EPOCH": 83284, "BSTAR": 0.0010550911, "MEAN_MOTION_DOT": 1.312e-05, "MEAN_MOTION_DDOT": 0}, "tle": {"line1": "1 34756U 93036AAA 25336.68826367  .00001312  00000+0  10551-2 0  9991", "line2": "2 34756  74.0021 120.8981 0344553 358.9057   1.1264 13.67210106832847"}}, "geometry": {"type": "Point", "coordinates": [-126.70992317189331, 72.56789092844934]}}, {"type": "Feature", "properties": {"norad_id": 34758, "name": "COSMOS 2251 DEB", "group": "cosmos-2251-debris", "lat": 29.010862122721353, "lon": 125.02158182142287, "alt_km": 933.2336732293506, "timestamp": "2025-12-03T15:48:03.461357+00:00", "meta": {"OBJECT_NAME": "COSMOS 2251 DEB", "OBJECT_ID": "1993-036AAC", "EPOCH": "2025-12-02T23:11:46.563360", "MEAN_MOTION": 13.58027856, "ECCENTRICITY": 0.03806607, "INCLINATION": 74.1072, "RA_OF_ASC_NODE": 315.2248, "ARG_OF_PERICENTER": 81.3008, "MEAN_ANOMALY": 283.1017, "EPHEMERIS_TYPE": 0, "CLASSIFICATION_TYPE": "U", "NORAD_CAT_ID": 34758, "ELEMENT_SET_NO": 999, "REV_AT_EPOCH": 82777, "BSTAR": 0.0012020965, "MEAN_MOTION_DOT": 1.376e-05, "MEAN_MOTION_DDOT": 0}, "tle": {"line1": "1 34758U 93036AAC 25336.96651115  .00001376  00000+0  12021-2 0  9995", "line2": "2 34758  74.1072 315.2248 0380660  81.3008 283.1017 13.58027856827776"}}, "geometry": {"type": "Point", "coordinates": [125.02158182142287, 29.010862122721353]}}, {"type": "Feature", "properties": {"norad_id": 34760, "name": "COSMOS 2251 DEB", "group": "cosmos-2251-debris", "lat": -6.829746498264301, "lon": 140.52788285016354, "alt_km": 899.3857640277856, "timestamp": "2025-12-03T15:48:03.461366+00:00", "meta": {"OBJECT_NAME": "COSMOS 2251 DEB", "OBJECT_ID": "1993-036AAE", "EPOCH": "2025-12-02T15:48:08.179200", "MEAN_MOTION": 14.19524364, "ECCENTRICITY": 0.00962533, "INCLINATION": 74.0627, "RA_OF_ASC_NODE": 320.3503, "ARG_OF_PERICENTER": 14.8263, "MEAN_ANOMALY": 104.0636, "EPHEMERIS_TYPE": 0, "CLASSIFICATION_TYPE": "U", "NORAD_CAT_ID": 34760, "ELEMENT_SET_NO": 999, "REV_AT_EPOCH": 86545, "BSTAR": 0.00087310198, "MEAN_MOTION_DOT": 1.903e-05, "MEAN_MOTION_DDOT": 0}, "tle": {"line1": "1 34760U 93036AAE 25336.65842800  .00001903  00000+0  87310-3 0  9997", "line2": "2 34760  74.0627 320.3503 0096253  14.8263 104.0636 14.19524364865450"}}, "geometry": {"type": "Point", "coordinates": [140.52788285016354, -6.829746498264301]}}]}